NORAD_CAT_ID,OBJECT_NAME,OBJECT_TYPE,EPOCH,MEAN_MOTION,ECCENTRICITY,INCLINATION,RA_OF_ASC_NODE,ARG_OF_PERICENTER,MEAN_ANOMALY,BSTAR,MEAN_MOTION_DOT,MEAN_MOTION_DDOT,TLE_LINE0,TLE_LINE1,TLE_LINE2,SEMIMAJOR_AXIS,PERIOD,APOGEE,PERIGEE,DECAYED
52625.0,STARLINK-3988,PAYLOAD,2022-09-21 03:27:06,15.08844055,0.0001482,53.2171,190.3631,74.9721,285.1435,0.00013288,1.828e-05,0.0,0 STARLINK-3988,1 52625U 22052AD  22264.14382293  .00001828  00000-0  13288-3 0  9993,2 52625  53.2171 190.3631 0001482  74.9721 285.1435 15.08844055 20313,6917.868,95.437,540.758,538.7080000000002,0.0
52625.0,STARLINK-3988,PAYLOAD,2022-09-21 20:56:21,15.08830345,0.0001455,53.2179,187.0932,76.9634,283.152,4.4773e-06,-2.17e-06,0.0,0 STARLINK-3988,1 52625U 22052AD  22264.87247200 -.00000217  00000-0  44773-5 0  9998,2 52625  53.2179 187.0932 0001455  76.9634 283.1520 15.08830345 20043,6917.91,95.438,540.781,538.768,0.0
52625.0,STARLINK-3988,PAYLOAD,2022-09-21 22:31:44,15.08830383,0.00015,53.2178,186.7957,76.5794,283.5365,4.9029e-06,-2.1e-06,0.0,0 STARLINK-3988,1 52625U 22052AD  22264.93871244 -.00000210  00000-0  49029-5 0  9998,2 52625  53.2178 186.7957 0001500  76.5794 283.5365 15.08830383 20435,6917.91,95.438,540.812,538.737,0.0
52625.0,STARLINK-3988,PAYLOAD,2022-09-23 01:33:18,15.08842406,0.0001506,53.2178,181.7413,73.3988,286.7169,0.0001694,2.409e-05,0.0,0 STARLINK-3988,1 52625U 22052AD  22266.06479331  .00002409  00000-0  16940-3 0  9990,2 52625  53.2178 181.7413 0001506  73.3988 286.7169 15.08842406 20608,6917.873000000001,95.437,540.78,538.696,0.0
52625.0,STARLINK-3988,PAYLOAD,2022-09-23 11:05:37,15.08839298,0.0001561,53.2179,179.9572,79.3595,280.7573,0.00011529,1.547e-05,0.0,0 STARLINK-3988,1 52625U 22052AD  22266.46223576  .00001547  00000-0  11529-3 0  9992,2 52625  53.2179 179.9572 0001561  79.3595 280.7573 15.08839298 20287,6917.8830000000025,95.438,540.827,538.668,0.0
52625.0,STARLINK-3988,PAYLOAD,2022-09-23 17:27:09,15.08839016,0.0001616,53.2177,178.7676,78.8334,281.284,8.9747e-05,1.141e-05,0.0,0 STARLINK-3988,1 52625U 22052AD  22266.72719683  .00001141  00000-0  89747-4 0  9998,2 52625  53.2177 178.7676 0001616  78.8334 281.2840 15.08839016 20329,6917.8830000000025,95.438,540.866,538.63,0.0
52625.0,STARLINK-3988,PAYLOAD,2022-09-24 01:24:05,15.08841859,0.0001591,53.2185,177.2821,81.2931,278.8242,0.00026963,4.006e-05,0.0,0 STARLINK-3988,1 52625U 22052AD  22267.05839745  .00004006  00000-0  26963-3 0  9990,2 52625  53.2185 177.2821 0001591  81.2931 278.8242 15.08841859 20750,6917.875,95.437,540.84,538.639,0.0
52625.0,STARLINK-3988,PAYLOAD,2022-09-24 02:59:28,15.08844384,0.0001604,53.2184,176.9845,81.7851,278.3323,0.00028535,4.257e-05,0.0,0 STARLINK-3988,1 52625U 22052AD  22267.12463645  .00004257  00000-0  28535-3 0  9995,2 52625  53.2184 176.9845 0001604  81.7851 278.3323 15.08844384 20382,6917.8669999999975,95.437,540.842,538.622,0.0
52625.0,STARLINK-3988,PAYLOAD,2022-09-25 01:14:52,15.08839428,0.0001458,53.2183,172.8217,87.5274,272.5885,-2.8862e-05,-7.47e-06,0.0,0 STARLINK-3988,1 52625U 22052AD  22268.05199337 -.00000747  00000-0 -28862-4 0  9998,2 52625  53.2183 172.8217 0001458  87.5274 272.5885 15.08839428 20909,6917.882,95.438,540.756,538.739,0.0
52625.0,STARLINK-3988,PAYLOAD,2022-09-25 12:22:34,15.08838493,0.0001365,53.2184,170.7398,92.8315,267.2833,-3.9563e-05,-9.17e-06,0.0,0 STARLINK-3988,1 52625U 22052AD  22268.51567366 -.00000917  00000-0 -39563-4 0  9999,2 52625  53.2184 170.7398 0001365  92.8315 267.2833 15.08838493 20599,6917.885,95.438,540.694,538.806,0.0
52625.0,STARLINK-3988,PAYLOAD,2022-09-25 20:19:29,15.08845601,0.0001691,53.2167,169.2537,67.5662,292.551,0.00012607,1.719e-05,0.0,0 STARLINK-3988,1 52625U 22052AD  22268.84687295  .00001719  00000-0  12607-3 0  9997,2 52625  53.2167 169.2537 0001691  67.5662 292.5510 15.08845601 20642,6917.863,95.437,540.898,538.558,0.0
52625.0,STARLINK-3988,PAYLOAD,2022-09-26 12:13:21,15.08840231,0.0001438,53.2175,166.28,76.4357,283.6796,4.508e-05,4.3e-06,0.0,0 STARLINK-3988,1 52625U 22052AD  22269.50927507  .00000430  00000-0  45080-4 0  9995,2 52625  53.2175 166.2800 0001438  76.4357 283.6796 15.08840231 20742,6917.88,95.438,540.739,538.75,0.0
52625.0,STARLINK-3988,PAYLOAD,2022-09-26 18:34:54,15.08829051,0.0001296,53.2173,165.0886,85.6115,274.5026,4.7582e-05,4.69e-06,0.0,0 STARLINK-3988,1 52625U 22052AD  22269.77424161  .00000469  00000-0  47582-4 0  9993,2 52625  53.2173 165.0886 0001296  85.6115 274.5026 15.08829051 21166,6917.9140000000025,95.438,540.675,538.882,0.0
52625.0,STARLINK-3988,PAYLOAD,2022-09-26 20:10:17,15.08829365,0.0001302,53.2175,164.7918,84.9675,275.1466,4.993100000000002e-05,5.07e-06,0.0,0 STARLINK-3988,1 52625U 22052AD  22269.84048196  .00000507  00000-0  49931-4 0  9994,2 52625  53.2175 164.7918 0001302  84.9675 275.1466 15.08829365 20792,6917.913000000001,95.438,540.679,538.877,0.0
52625.0,STARLINK-3988,PAYLOAD,2022-09-26 23:21:04,15.08829274,0.0001348,53.2174,164.1964,80.898,279.2165,6.291e-05,7.13e-06,0.0,0 STARLINK-3988,1 52625U 22052AD  22269.97296322  .00000713  00000-0  62910-4 0  9995,2 52625  53.2174 164.1964 0001348  80.8980 279.2165 15.08829274 20813,6917.913000000001,95.438,540.711,538.846,0.0
52625.0,STARLINK-3988,PAYLOAD,2022-09-27 16:50:17,15.08851746,0.0001459,53.2172,160.9261,90.6073,269.5086,0.00030348,4.547e-05,0.0,0 STARLINK-3988,1 52625U 22052AD  22270.70159389  .00004547  00000-0  30348-3 0  9997,2 52625  53.2172 160.9261 0001459  90.6073 269.5086 15.08851746 21308,6917.844,95.437,540.719,538.7,0.0
52625.0,STARLINK-3988,PAYLOAD,2022-09-27 20:01:03,15.08855716,0.0001467,53.2171,160.3314,92.6537,267.4623,0.00036971,5.603e-05,0.0,0 STARLINK-3988,1 52625U 22052AD  22270.83407171  .00005603  00000-0  36971-3 0  9998,2 52625  53.2171 160.3314 0001467  92.6537 267.4623 15.08855716 20940,6917.831999999999,95.437,540.712,538.683,0.0
52625.0,STARLINK-3988,PAYLOAD,2022-09-27 23:11:50,15.08853954,0.0001426,53.217,159.7371,82.4515,277.6639,0.00043182,6.594e-05,0.0,0 STARLINK-3988,1 52625U 22052AD  22270.96655414  .00006594  00000-0  43182-3 0  9999,2 52625  53.2170 159.7371 0001426  82.4515 277.6639 15.08853954 20966,6917.8380000000025,95.437,540.689,538.716,0.0
52625.0,STARLINK-3988,PAYLOAD,2022-09-28 16:41:04,15.08846495,0.0001403,53.2168,156.4664,74.024,286.0907,0.00023931,3.523e-05,0.0,0 STARLINK-3988,1 52625U 22052AD  22271.69519487  .00003523  00000-0  23931-3 0  9998,2 52625  53.2168 156.4664 0001403  74.0240 286.0907 15.08846495 21458,6917.861,95.437,540.696,538.755,0.0
52625.0,STARLINK-3988,PAYLOAD,2022-09-28 19:51:50,15.0884904,0.0001409999999999,53.2168,155.8717,74.0821,286.0327,0.00025369,3.753e-05,0.0,0 STARLINK-3988,1 52625U 22052AD  22271.82767339  .00003753  00000-0  25369-3 0  9996,2 52625  53.2168 155.8717 0001410  74.0821 286.0327 15.08849040 21098,6917.853,95.437,540.693,538.742,0.0
52625.0,STARLINK-3988,PAYLOAD,2022-09-29 11:45:42,15.08838034,0.0001478,53.2171,152.899,68.8797,291.2353,-7.2672e-05,-1.444e-05,0.0,0 STARLINK-3988,1 52625U 22052AD  22272.49007685 -.00001444  00000-0 -72672-4 0  9998,2 52625  53.2171 152.8990 0001478  68.8797 291.2353 15.08838034 21198,6917.886,95.438,540.774,538.729,0.0
52625.0,STARLINK-3988,PAYLOAD,2022-09-29 18:07:14,15.08849395,0.000149,53.2173,151.7094,72.488,287.6275,4.8436e-05,4.83e-06,0.0,0 STARLINK-3988,1 52625U 22052AD  22272.75503238  .00000483  00000-0  48436-4 0  9993,2 52625  53.2173 151.7094 0001490  72.4880 287.6275 15.08849395 21612,6917.852,95.437,540.747,538.686,0.0
52625.0,STARLINK-3988,PAYLOAD,2022-09-29 19:42:37,15.08849465,0.000151,53.2171,151.4117,73.4717,286.6441,5.7527e-05,6.28e-06,0.0,0 STARLINK-3988,1 52625U 22052AD  22272.82127182  .00000628  00000-0  57527-4 0  9993,2 52625  53.2171 151.4117 0001510  73.4717 286.6441 15.08849465 21247,6917.851,95.437,540.761,538.672,0.0
52625.0,STARLINK-3988,PAYLOAD,2022-09-30 11:36:29,15.08841593,0.0001440999999999,53.2179,148.4385,69.7282,290.3865,9.8649e-05,1.282e-05,0.0,0 STARLINK-3988,1 52625U 22052AD  22273.48367638  .00001282  00000-0  98649-4 0  9995,2 52625  53.2179 148.4385 0001441  69.7282 290.3865 15.08841593 21725,6917.876,95.437,540.737,538.744,0.0
52625.0,STARLINK-3988,PAYLOAD,2022-09-30 17:58:01,15.08846574,0.000144,53.2178,147.2489,73.1726,286.9424,0.00013264,1.824e-05,0.0,0 STARLINK-3988,1 52625U 22052AD  22273.74863193  .00001824  00000-0  13264-3 0  9992,2 52625  53.2178 147.2489 0001440  73.1726 286.9424 15.08846574 21385,6917.86,95.437,540.721,538.729,0.0
52625.0,STARLINK-3988,PAYLOAD,2022-09-30 22:44:10,15.08850559,0.0001443,53.2169,146.3569,71.1486,288.9662,0.00021551,3.145e-05,0.0,0 STARLINK-3988,1 52625U 22052AD  22273.94734947  .00003145  00000-0  21551-3 0  9994,2 52625  53.2169 146.3569 0001443  71.1486 288.9662 15.08850559 21797,6917.848000000001,95.437,540.711,538.715,0.0
52625.0,STARLINK-3988,PAYLOAD,2022-10-01 08:16:30,15.08843571,0.0001483,53.217,144.5733,66.76100000000001,293.3538,0.00015813,2.23e-05,0.0,0 STARLINK-3988,1 52625U 22052AD  22274.34479303  .00002230  00000-0  15813-3 0  9999,2 52625  53.2170 144.5733 0001483  66.7610 293.3538 15.08843571 21850,6917.869000000002,95.437,540.76,538.7090000000002,0.0
52625.0,STARLINK-3988,PAYLOAD,2022-10-01 11:27:16,15.088490599999998,0.0001479,53.2169,143.9782,70.5131,289.6021,0.00016822,2.391e-05,0.0,0 STARLINK-3988,1 52625U 22052AD  22274.47727030  .00002391  00000-0  16822-3 0  9995,2 52625  53.2169 143.9782 0001479  70.5131 289.6021 15.08849060 21495,6917.853,95.437,540.741,538.695,0.0
52625.0,STARLINK-3988,PAYLOAD,2022-10-01 20:59:35,15.08841107,0.0001373,53.2167,142.1928,83.9343,276.1806,3.6995e-05,3.01e-06,0.0,0 STARLINK-3988,1 52625U 22052AD  22274.87471292  .00000301  00000-0  36995-4 0  9998,2 52625  53.2167 142.1928 0001373  83.9343 276.1806 15.08841107 21555,6917.877,95.437,540.692,538.7919999999998,0.0
